{"type": "FeatureCollection", "features": [ {"type": "Feature", "properties": {"norad_id": 33980, "name": "COSMOS 2251 DEB", "group": "cosmos-2251-debris", "lat": -51.45278728997537, "lon": 44.8372511219947, "alt_km": 705.6067906108619, "timestamp": "2025-12-09T07:41:33.604785+00:00", "meta": {"OBJECT_NAME": "COSMOS 2251 DEB", "OBJECT_ID": "1993-036FP", "EPOCH": "2025-12-08T16:11:00.261312", "MEAN_MOTION": 14.5861034, "ECCENTRICITY": 0.0028919, "INCLINATION": 74.0216, "RA_OF_ASC_NODE": 67.1441, "ARG_OF_PERICENTER": 212.9955, "MEAN_ANOMALY": 300.389, "EPHEMERIS_TYPE": 0, "CLASSIFICATION_TYPE": "U", "NORAD_CAT_ID": 33980, "ELEMENT_SET_NO": 999, "REV_AT_EPOCH": 88735, "BSTAR": 0.001256, "MEAN_MOTION_DOT": 5.856e-05, "MEAN_MOTION_DDOT": 0}, "tle": {"line1": "1 33980U 93036FP  25342.67430858  .00005856  00000+0  12560-2 0  9990", "line2": "2 33980  74.0216  67.1441 0028919 212.9955 300.3890 14.58610340887356"}}, "geometry": {"type": "Point", "coordinates": [44.8372511219947, -51.45278728997537]}}, {"type": "Feature", "properties": {"norad_id": 33982, "name": "COSMOS 2251 DEB", "group": "cosmos-2251-debris", "lat": 36.58989972333257, "lon": 174.209249246317, "alt_km": 688.9043377609205, "timestamp": "2025-12-09T07:41:33.604795+00:00", "meta": {"OBJECT_NAME": "COSMOS 2251 DEB", "OBJECT_ID": "1993-036FR", "EPOCH": "2025-12-08T20:20:55.492800", "MEAN_MOTION": 14.60190709, "ECCENTRICITY": 0.00749587, "INCLINATION": 74.0708, "RA_OF_ASC_NODE": 7.3503, "ARG_OF_PERICENTER": 52.9799, "MEAN_ANOMALY": 124.1442, "EPHEMERIS_TYPE": 0, "CLASSIFICATION_TYPE": "U", "NORAD_CAT_ID": 33982, "ELEMENT_SET_NO": 999, "REV_AT_EPOCH": 89102, "BSTAR": 0.0006477625, "MEAN_MOTION_DOT": 3.218e-05, "MEAN_MOTION_DDOT": 0}, "tle": {"line1": "1 33982U 93036FR  25342.84786450  .00003218  00000+0  64776-3 0  9990", "line2": "2 33982  74.0708   7.3503 0074958  52.9799 124.1442 14.60190709891020"}}, "geometry": {"type": "Point", "coordinates": [174.209249246317, 36.58989972333257]}}, {"type": "Feature", "properties": {"norad_id": 33983, "name": "COSMOS 2251 DEB", "group": "cosmos-2251-debris", "lat": -9.484971690606057, "lon": -23.793490176895517, "alt_km": 721.3473362849145, "timestamp": "2025-12-09T07:41:33.604807+00:00", "meta": {"OBJECT_NAME": "COSMOS 2251 DEB", "OBJECT_ID": "1993-036FS", "EPOCH": "2025-12-08T23:06:17.404416", "MEAN_MOTION": 14.50644284, "ECCENTRICITY": 0.00213929, "INCLINATION": 74.0493, "RA_OF_ASC_NODE": 154.1395, "ARG_OF_PERICENTER": 257.4927, "MEAN_ANOMALY": 224.5629, "EPHEMERIS_TYPE": 0, "CLASSIFICATION_TYPE": "U", "NORAD_CAT_ID": 33983, "ELEMENT_SET_NO": 999, "REV_AT_EPOCH": 88574, "BSTAR": 0.00070628284, "MEAN_MOTION_DOT": 2.754e-05, "MEAN_MOTION_DDOT": 0}, "tle": {"line1": "1 33983U 93036FS  25342.96270144  .00002754  00000+0  70628-3 0  9999", "line2": "2 33983  74.0493 154.1395 0021392 257.4927 224.5629 14.50644284885746"}}, "geometry": {"type": "Point", "coordinates": [-23.793490176895517, -9.484971690606057]}}, {"type": "Feature", "properties": {"norad_id": 33984, "name": "COSMOS 2251 DEB", "group": "cosmos-2251-debris", "lat": 69.66665851514473, "lon": 123.00616722191205, "alt_km": 665.7104373533621, "timestamp": "2025-12-09T07:41:33.604818+00:00", "meta": {"OBJECT_NAME": "COSMOS 2251 DEB", "OBJECT_ID": "1993-036FT", "EPOCH": "2025-12-08T18:55:47.432352", "MEAN_MOTION": 14.66310027, "ECCENTRICITY": 0.0023359, "INCLINATION": 74.0095, "RA_OF_ASC_NODE": 354.7305, "ARG_OF_PERICENTER": 193.8891, "MEAN_ANOMALY": 343.0824, "EPHEMERIS_TYPE": 0, "CLASSIFICATION_TYPE": "U", "NORAD_CAT_ID": 33984, "ELEMENT_SET_NO": 999, "REV_AT_EPOCH": 89008, "BSTAR": 0.0013093361, "MEAN_MOTION_DOT": 7.23e-05, "MEAN_MOTION_DDOT": 0}, "tle": {"line1": "1 33984U 93036FT  25342.78874343  .00007230  00000+0  13093-2 0  9997", "line2": "2 33984  74.0095 354.7305 0023359 193.8891 343.0824 14.66310027890081"}}, "geometry": {"type": "Point", "coordinates": [123.00616722191205, 69.66665851514473]}}, {"type": "Feature", "properties": {"norad_id": 33986, "name": "COSMOS 2251 DEB", "group": "cosmos-2251-debris", "lat": 33.27987139314102, "lon": -40.14762535977813, "alt_km": 717.580046643071, "timestamp": "2025-12-09T07:41:33.604828+00:00", "meta": {"OBJECT_NAME": "COSMOS 2251 DEB", "OBJECT_ID": "1993-036FV", "EPOCH": "2025-12-08T23:28:28.723008", "MEAN_MOTION": 14.43172512, "ECCENTRICITY": 0.00402644, "INCLINATION": 74.037, "RA_OF_ASC_NODE": 309.6592, "ARG_OF_PERICENTER": 23.2183, "MEAN_ANOMALY": 33.2913, "EPHEMERIS_TYPE": 0, "CLASSIFICATION_TYPE": "U", "NORAD_CAT_ID": 33986, "ELEMENT_SET_NO": 999, "REV_AT_EPOCH": 87974, "BSTAR": 0.0010834715, "MEAN_MOTION_DOT": 3.652e-05, "MEAN_MOTION_DDOT": 0}, "tle": {"line1": "1 33986U 93036FV  25342.97811022  .00003652  00000+0  10835-2 0  9990", "line2": "2 33986  74.0370 309.6592 0040264  23.2183  33.2913 14.43172512879747"}}, "geometry": {"type": "Point", "coordinates": [-40.14762535977813, 33.27987139314102]}}, {"type": "Feature", "properties": {"norad_id": 33990, "name": "COSMOS 2251 DEB", "group": "cosmos-2251-debris", "lat": 28.076783588095587, "lon": 102.63885527128959, "alt_km": 1357.9767189508466, "timestamp": "2025-12-09T07:41:33.604839+00:00", "meta": {"OBJECT_NAME": "COSMOS 2251 DEB", "OBJECT_ID": "1993-036FZ", "EPOCH": "2025-12-08T22:18:26.279712", "MEAN_MOTION": 13.49974285, "ECCENTRICITY": 0.04075898, "INCLINATION": 73.9291, "RA_OF_ASC_NODE": 292.1115, "ARG_OF_PERICENTER": 313.1051, "MEAN_ANOMALY": 99.1746, "EPHEMERIS_TYPE": 0, "CLASSIFICATION_TYPE": "U", "NORAD_CAT_ID": 33990, "ELEMENT_SET_NO": 999, "REV_AT_EPOCH": 82678, "BSTAR": 0.0020699028, "MEAN_MOTION_DOT": 2.182e-05, "MEAN_MOTION_DDOT": 0}, "tle": {"line1": "1 33990U 93036FZ  25342.92947083  .00002182  00000+0  20699-2 0  9993", "line2": "2 33990  73.9291 292.1115 0407589 313.1051  99.1746 13.49974285826784"}}, "geometry": {"type": "Point", "coordinates": [102.63885527128959, 28.076783588095587]}}, {"type": "Feature", "properties": {"norad_id": 33992, "name": "COSMOS 2251 DEB", "group": "cosmos-2251-debris", "lat": -31.811501039517935, "lon": -25.904166866673194, "alt_km": 705.3697376909977, "timestamp": "2025-12-09T07:41:33.604850+00:00", "meta": {"OBJECT_NAME": "COSMOS 2251 DEB", "OBJECT_ID": "1993-036GB", "EPOCH": "2025-12-08T11:04:18.388416", "MEAN_MOTION": 14.66161326, "ECCENTRICITY": 0.0051624, "INCLINATION": 74.024, "RA_OF_ASC_NODE": 345.9883, "ARG_OF_PERICENTER": 105.2442, "MEAN_ANOMALY": 8.8388, "EPHEMERIS_TYPE": 0, "CLASSIFICATION_TYPE": "U", "NORAD_CAT_ID": 33992, "ELEMENT_SET_NO": 999, "REV_AT_EPOCH": 89062, "BSTAR": 0.0010469614, "MEAN_MOTION_DOT": 5.846e-05, "MEAN_MOTION_DDOT": 0}, "tle": {"line1": "1 33992U 93036GB  25342.46132394  .00005846  00000+0  10470-2 0  9991", "line2": "2 33992  74.0240 345.9883 0051624 105.2442   8.8388 14.66161326890627"}}, "geometry": {"type": "Point", "coordinates": [-25.904166866673194, -31.811501039517935]}}, {"type": "Feature", "properties": {"norad_id": 33994, "name": "COSMOS 2251 DEB", "group": "cosmos-2251-debris", "lat": -6.754123303950784, "lon": 18.679148803848427, "alt_km": 771.6452257137962, "timestamp": "2025-12-09T07:41:33.604861+00:00", "meta": {"OBJECT_NAME": "COSMOS 2251 DEB", "OBJECT_ID": "1993-036GD", "EPOCH": "2025-12-08T23:03:21.443904", "MEAN_MOTION": 14.41210994, "ECCENTRICITY": 0.00235265, "INCLINATION": 74.0421, "RA_OF_ASC_NODE": 197.4029, "ARG_OF_PERICENTER": 332.4062, "MEAN_ANOMALY": 148.3163, "EPHEMERIS_TYPE": 0, "CLASSIFICATION_TYPE": "U", "NORAD_CAT_ID": 33994, "ELEMENT_SET_NO": 999, "REV_AT_EPOCH": 88365, "BSTAR": 0.00013085778, "MEAN_MOTION_DOT": 3.97e-06, "MEAN_MOTION_DDOT": 0}, "tle": {"line1": "1 33994U 93036GD  25342.96066486  .00000397  00000+0  13086-3 0  9999", "line2": "2 33994  74.0421 197.4029 0023526 332.4062 148.3163 14.41210994883659"}}, "geometry": {"type": "Point", "coordinates": [18.679148803848427, -6.754123303950784]}}, {"type": "Feature", "properties": {"norad_id": 33995, "name": "COSMOS 2251 DEB", "group": "cosmos-2251-debris", "lat": -17.179562302708028, "lon": 120.53862917278049, "alt_km": 820.7157419779269, "timestamp": "2025-12-09T07:41:33.604871+00:00", "meta": {"OBJECT_NAME": "COSMOS 2251 DEB", "OBJECT_ID": "1993-036GE", "EPOCH": "2025-12-08T18:23:20.643360", "MEAN_MOTION": 14.34738788, "ECCENTRICITY": 0.00603925, "INCLINATION": 74.0616, "RA_OF_ASC_NODE": 126.6208, "ARG_OF_PERICENTER": 142.1561, "MEAN_ANOMALY": 218.3862, "EPHEMERIS_TYPE": 0, "CLASSIFICATION_TYPE": "U", "NORAD_CAT_ID": 33995, "ELEMENT_SET_NO": 999, "REV_AT_EPOCH": 87462, "BSTAR": 0.0017288695, "MEAN_MOTION_DOT": 4.978e-05, "MEAN_MOTION_DDOT": 0}, "tle": {"line1": "1 33995U 93036GE  25342.76621115  .00004978  00000+0  17289-2 0  9991", "line2": "2 33995  74.0616 126.6208 0060392 142.1561 218.3862 14.34738788874620"}}, "geometry": {"type": "Point", "coordinates": [120.53862917278049, -17.179562302708028]}}, {"type": "Feature", "properties": {"norad_id": 33999, "name": "COSMOS 2251 DEB", "group": "cosmos-2251-debris", "lat": -72.73292332478393, "lon": 125.72692538141891, "alt_km": 645.7601008186248, "timestamp": "2025-12-09T07:41:33.604882+00:00", "meta": {"OBJECT_NAME": "COSMOS 2251 DEB", "OBJECT_ID": "1993-036GJ", "EPOCH": "2025-12-08T19:10:47.391168", "MEAN_MOTION": 14.83227143, "ECCENTRICITY": 0.00445843, "INCLINATION": 73.9192, "RA_OF_ASC_NODE": 238.635, "ARG_OF_PERICENTER": 135.3976, "MEAN_ANOMALY": 225.0803, "EPHEMERIS_TYPE": 0, "CLASSIFICATION_TYPE": "U", "NORAD_CAT_ID": 33999, "ELEMENT_SET_NO": 999, "REV_AT_EPOCH": 89192, "BSTAR": 0.0020133871, "MEAN_MOTION_DOT": 0.0001675, "MEAN_MOTION_DDOT": 0}, "tle": {"line1": "1 33999U 93036GJ  25342.79915962  .00016750  00000+0  20134-2 0  9998", "line2": "2 33999  73.9192 238.6350 0044584 135.3976 225.0803 14.83227143891926"}}, "geometry": {"type": "Point", "coordinates": [125.72692538141891, -72.73292332478393]}}]}